[{"OBJECT_NAME":"STARLINK-4544","OBJECT_ID":"2022-097G","EPOCH":"2026-03-09T12:31:32.344032","MEAN_MOTION":15.08839779,"ECCENTRICITY":0.0001436,"INCLINATION":53.217,"RA_OF_ASC_NODE":114.4865,"ARG_OF_PERICENTER":83.1077,"MEAN_ANOMALY":277.0079,"EPHEMERIS_TYPE":0,"CLASSIFICATION_TYPE":"U","NORAD_CAT_ID":53394,"ELEMENT_SET_NO":999,"REV_AT_EPOCH":19879,"BSTAR":7.617e-6,"MEAN_MOTION_DOT":-1.67e-6,"MEAN_MOTION_DDOT":0},{"OBJECT_NAME":"NOAA 16 DEB","OBJECT_ID":"2000-055BZ","EPOCH":"2026-03-09T09:57:46.840608","MEAN_MOTION":15.04968987,"ECCENTRICITY":0.00133628,"INCLINATION":98.8453,"RA_OF_ASC_NODE":286.076,"ARG_OF_PERICENTER":194.204,"MEAN_ANOMALY":165.8809,"EPHEMERIS_TYPE":0,"CLASSIFICATION_TYPE":"U","NORAD_CAT_ID":41142,"ELEMENT_SET_NO":999,"REV_AT_EPOCH":53866,"BSTAR":0.0051237154,"MEAN_MOTION_DOT":0.00073426,"MEAN_MOTION_DDOT":0}]
